KUIPER-00167            
1 65780U 25217U   26014.15021320  .00002401  00000+0  34360-3 0  9995
2 65780  51.8975 286.7595 0000745  64.7649 295.3390 14.79966829 16769
KUIPER-00168            
1 65781U 25217V   26014.66668981  .00003181  00000+0  27511-3 0  9998
2 65781  51.8907 268.0598 0001007 243.7924  46.7049 14.99834910  4402
KUIPER-00169            
1 65782U 25217W   26014.66668981  .00029500  00000+0  35038-2 0  9994
2 65782  51.9013 272.1572 0004158 125.4969 308.4985 14.84204110  5219
KUIPER-00170            
1 65783U 25217X   26014.66668981 -.00007463  00000+0 -94091-3 0  9996
2 65783  51.8986 276.9878 0000720 125.0096  64.0254 14.80375985  5160
KUIPER-00171            
1 65784U 25217Y   26014.66668981  .01356539  00000+0  65930-2 0  9996
2 65784  51.8514 248.1198 0010227 148.0372  21.1206 15.79222171  3817
KUIPER-00172            
1 65785U 25217Z   26013.44281770  .00010716  00000+0  49662-3 0  9997
2 65785  51.8742 273.8105 0005397 142.2089 217.9270 15.20578814 16888
KUIPER-00173            
1 65786U 25217AA  26014.66668981  .00022059  00000+0  26262-2 0  9999
2 65786  51.9294 272.1668 0002812 229.3051  21.5923 14.84264448  5205
KUIPER-00174            
1 65787U 25217AB  26014.66668981 -.00001923  00000+0 -13432-3 0  9995
2 65787  51.8902 268.2106 0001852 272.3504 177.8689 14.99324160  5532
